[{"OBJECT_NAME":"STARLINK-31947","OBJECT_ID":"2024-097A","EPOCH":"2026-03-08T23:57:43.780896","MEAN_MOTION":15.27562328,"ECCENTRICITY":0.00010676,"INCLINATION":42.9964,"RA_OF_ASC_NODE":278.0507,"ARG_OF_PERICENTER":272.1636,"MEAN_ANOMALY":87.9094,"EPHEMERIS_TYPE":0,"CLASSIFICATION_TYPE":"U","NORAD_CAT_ID":59835,"ELEMENT_SET_NO":999,"REV_AT_EPOCH":10181,"BSTAR":-1.4865394e-5,"MEAN_MOTION_DOT":-6.71e-6,"MEAN_MOTION_DDOT":0},{"OBJECT_NAME":"TRANSPORTER-1 OBJECT AA","OBJECT_ID":"2021-006AA","EPOCH":"2026-03-09T22:58:14.761920","MEAN_MOTION":15.29982294,"ECCENTRICITY":0.00086604,"INCLINATION":97.2381,"RA_OF_ASC_NODE":112.457,"ARG_OF_PERICENTER":185.709,"MEAN_ANOMALY":174.4054,"EPHEMERIS_TYPE":0,"CLASSIFICATION_TYPE":"U","NORAD_CAT_ID":47437,"ELEMENT_SET_NO":999,"REV_AT_EPOCH":28414,"BSTAR":0.0002197941,"MEAN_MOTION_DOT":6.312e-5,"MEAN_MOTION_DDOT":0}]
